[{"COMMENT":"GENERATED VIA SPACETRACK.ORG API","ORIGINATOR":"18 SPCS","NORAD_CAT_ID":"45120","OBJECT_NAME":"VPM","OBJECT_TYPE":"PAYLOAD","CLASSIFICATION_TYPE":"U","INTLDES":"19071K","EPOCH":"2020-07-23 22:03:19","EPOCH_MICROSECONDS":"934208","MEAN_MOTION":"15.3419269","ECCENTRICITY":"0.0011557","INCLINATION":"51.6429","RA_OF_ASC_NODE":"186.6852","ARG_OF_PERICENTER":"183.4961","MEAN_ANOMALY":"176.5942","EPHEMERIS_TYPE":"0","ELEMENT_SET_NO":"999","REV_AT_EPOCH":"2661","BSTAR":"0.000052293","MEAN_MOTION_DOT":"0.00001377","MEAN_MOTION_DDOT":"0","FILE":"2790216","TLE_LINE0":"0 VPM","TLE_LINE1":"1 45120U 19071K   20205.91898072  .00001377  00000-0  52293-4 0  9996","TLE_LINE2":"2 45120  51.6429 186.6852 0011557 183.4961 176.5942 15.34192690 26617","OBJECT_ID":"2019-071K","OBJECT_NUMBER":"45120","SEMIMAJOR_AXIS":"6841.456","PERIOD":"93.860","APOGEE":"471.228","PERIGEE":"455.414","DECAYED":"0"},{"COMMENT":"GENERATED VIA SPACETRACK.ORG API","ORIGINATOR":"18 SPCS","NORAD_CAT_ID":"45120","OBJECT_NAME":"VPM","OBJECT_TYPE":"PAYLOAD","CLASSIFICATION_TYPE":"U","INTLDES":"19071K","EPOCH":"2020-07-24 05:52:19","EPOCH_MICROSECONDS":"762752","MEAN_MOTION":"15.34193284","ECCENTRICITY":"0.001154","INCLINATION":"51.6429","RA_OF_ASC_NODE":"185.1099","ARG_OF_PERICENTER":"184.6296","MEAN_ANOMALY":"175.4581","EPHEMERIS_TYPE":"0","ELEMENT_SET_NO":"999","REV_AT_EPOCH":"2666","BSTAR":"0.000051112","MEAN_MOTION_DOT":"0.00001337","MEAN_MOTION_DDOT":"0","FILE":"2790543","TLE_LINE0":"0 VPM","TLE_LINE1":"1 45120U 19071K   20206.24467318 +.00001337 +00000-0 +51112-4 0  9993","TLE_LINE2":"2 45120 051.6429 185.1099 0011540 184.6296 175.4581 15.34193284026662","OBJECT_ID":"2019-071K","OBJECT_NUMBER":"45120","SEMIMAJOR_AXIS":"6841.454","PERIOD":"93.860","APOGEE":"471.214","PERIGEE":"455.424","DECAYED":"0"},{"COMMENT":"GENERATED VIA SPACETRACK.ORG API","ORIGINATOR":"18 SPCS","NORAD_CAT_ID":"45120","OBJECT_NAME":"VPM","OBJECT_TYPE":"PAYLOAD","CLASSIFICATION_TYPE":"U","INTLDES":"19071K","EPOCH":"2020-07-24 21:30:19","EPOCH_MICROSECONDS":"177056","MEAN_MOTION":"15.34196504","ECCENTRICITY":"0.0011498","INCLINATION":"51.643","RA_OF_ASC_NODE":"181.9591","ARG_OF_PERICENTER":"186.9497","MEAN_ANOMALY":"173.1327","EPHEMERIS_TYPE":"0","ELEMENT_SET_NO":"999","REV_AT_EPOCH":"2676","BSTAR":"0.000055954","MEAN_MOTION_DOT":"0.00001501","MEAN_MOTION_DDOT":"0","FILE":"2790705","TLE_LINE0":"0 VPM","TLE_LINE1":"1 45120U 19071K   20206.89605529 +.00001501 +00000-0 +55954-4 0  9993","TLE_LINE2":"2 45120 051.6430 181.9591 0011498 186.9497 173.1327 15.34196504026767","OBJECT_ID":"2019-071K","OBJECT_NUMBER":"45120","SEMIMAJOR_AXIS":"6841.445","PERIOD":"93.860","APOGEE":"471.176","PERIGEE":"455.443","DECAYED":"0"},{"COMMENT":"GENERATED VIA SPACETRACK.ORG API","ORIGINATOR":"18 SPCS","NORAD_CAT_ID":"45120","OBJECT_NAME":"VPM","OBJECT_TYPE":"PAYLOAD","CLASSIFICATION_TYPE":"U","INTLDES":"19071K","EPOCH":"2020-07-25 03:45:30","EPOCH_MICROSECONDS":"923424","MEAN_MOTION":"15.34197781","ECCENTRICITY":"0.0011485","INCLINATION":"51.643","RA_OF_ASC_NODE":"180.6988","ARG_OF_PERICENTER":"187.8514","MEAN_ANOMALY":"172.229","EPHEMERIS_TYPE":"0","ELEMENT_SET_NO":"999","REV_AT_EPOCH":"2680","BSTAR":"0.000058126","MEAN_MOTION_DOT":"0.00001574","MEAN_MOTION_DDOT":"0","FILE":"2790836","TLE_LINE0":"0 VPM","TLE_LINE1":"1 45120U 19071K   20207.15660791  .00001574  00000-0  58126-4 0  9999","TLE_LINE2":"2 45120  51.6430 180.6988 0011485 187.8514 172.2290 15.34197781 26801","OBJECT_ID":"2019-071K","OBJECT_NUMBER":"45120","SEMIMAJOR_AXIS":"6841.441","PERIOD":"93.860","APOGEE":"471.163","PERIGEE":"455.448","DECAYED":"0"},{"COMMENT":"GENERATED VIA SPACETRACK.ORG API","ORIGINATOR":"18 SPCS","NORAD_CAT_ID":"45120","OBJECT_NAME":"VPM","OBJECT_TYPE":"PAYLOAD","CLASSIFICATION_TYPE":"U","INTLDES":"19071K","EPOCH":"2020-07-25 05:19:18","EPOCH_MICROSECONDS":"749856","MEAN_MOTION":"15.34199723","ECCENTRICITY":"0.0011482","INCLINATION":"51.643","RA_OF_ASC_NODE":"180.3838","ARG_OF_PERICENTER":"188.0794","MEAN_ANOMALY":"172.0005","EPHEMERIS_TYPE":"0","ELEMENT_SET_NO":"999","REV_AT_EPOCH":"2681","BSTAR":"0.000065403","MEAN_MOTION_DOT":"0.00001819","MEAN_MOTION_DDOT":"0","FILE":"2791107","TLE_LINE0":"0 VPM","TLE_LINE1":"1 45120U 19071K   20207.22174479 +.00001819 +00000-0 +65403-4 0  9998","TLE_LINE2":"2 45120 051.6430 180.3838 0011482 188.0794 172.0005 15.34199723026813","OBJECT_ID":"2019-071K","OBJECT_NUMBER":"45120","SEMIMAJOR_AXIS":"6841.435","PERIOD":"93.860","APOGEE":"471.155","PERIGEE":"455.445","DECAYED":"0"},{"COMMENT":"GENERATED VIA SPACETRACK.ORG API","ORIGINATOR":"18 SPCS","NORAD_CAT_ID":"45120","OBJECT_NAME":"VPM","OBJECT_TYPE":"PAYLOAD","CLASSIFICATION_TYPE":"U","INTLDES":"19071K","EPOCH":"2020-07-26 04:46:17","EPOCH_MICROSECONDS":"784480","MEAN_MOTION":"15.3420324","ECCENTRICITY":"0.0011446","INCLINATION":"51.6418","RA_OF_ASC_NODE":"175.6577","ARG_OF_PERICENTER":"191.4625","MEAN_ANOMALY":"168.6098","EPHEMERIS_TYPE":"0","ELEMENT_SET_NO":"999","REV_AT_EPOCH":"2696","BSTAR":"0.000092076","MEAN_MOTION_DOT":"0.00002719","MEAN_MOTION_DDOT":"0","FILE":"2791649","TLE_LINE0":"0 VPM","TLE_LINE1":"1 45120U 19071K   20208.19881695 +.00002719 +00000-0 +92076-4 0  9996","TLE_LINE2":"2 45120 051.6418 175.6577 0011446 191.4625 168.6098 15.34203240026966","OBJECT_ID":"2019-071K","OBJECT_NUMBER":"45120","SEMIMAJOR_AXIS":"6841.425","PERIOD":"93.859","APOGEE":"471.120","PERIGEE":"455.459","DECAYED":"0"},{"COMMENT":"GENERATED VIA SPACETRACK.ORG API","ORIGINATOR":"18 SPCS","NORAD_CAT_ID":"45120","OBJECT_NAME":"VPM","OBJECT_TYPE":"PAYLOAD","CLASSIFICATION_TYPE":"U","INTLDES":"19071K","EPOCH":"2020-07-26 21:58:04","EPOCH_MICROSECONDS":"784160","MEAN_MOTION":"15.34207053","ECCENTRICITY":"0.0011423","INCLINATION":"51.6418","RA_OF_ASC_NODE":"172.1918","ARG_OF_PERICENTER":"194.1189","MEAN_ANOMALY":"165.9475","EPHEMERIS_TYPE":"0","ELEMENT_SET_NO":"999","REV_AT_EPOCH":"2707","BSTAR":"0.000094373","MEAN_MOTION_DOT":"0.00002797","MEAN_MOTION_DDOT":"0","FILE":"2791858","TLE_LINE0":"0 VPM","TLE_LINE1":"1 45120U 19071K   20208.91533315 +.00002797 +00000-0 +94373-4 0  9997","TLE_LINE2":"2 45120 051.6418 172.1918 0011423 194.1189 165.9475 15.34207053027075","OBJECT_ID":"2019-071K","OBJECT_NUMBER":"45120","SEMIMAJOR_AXIS":"6841.413","PERIOD":"93.859","APOGEE":"471.093","PERIGEE":"455.463","DECAYED":"0"},{"COMMENT":"GENERATED VIA SPACETRACK.ORG API","ORIGINATOR":"18 SPCS","NORAD_CAT_ID":"45120","OBJECT_NAME":"VPM","OBJECT_TYPE":"PAYLOAD","CLASSIFICATION_TYPE":"U","INTLDES":"19071K","EPOCH":"2020-07-27 05:47:04","EPOCH_MICROSECONDS":"267104","MEAN_MOTION":"15.34208774","ECCENTRICITY":"0.0011401","INCLINATION":"51.6418","RA_OF_ASC_NODE":"170.6165","ARG_OF_PERICENTER":"195.2729","MEAN_ANOMALY":"164.7911","EPHEMERIS_TYPE":"0","ELEMENT_SET_NO":"999","REV_AT_EPOCH":"2712","BSTAR":"0.000093574","MEAN_MOTION_DOT":"0.0000277","MEAN_MOTION_DDOT":"0","FILE":"2792093","TLE_LINE0":"0 VPM","TLE_LINE1":"1 45120U 19071K   20209.24102161  .00002770  00000-0  93574-4 0  9998","TLE_LINE2":"2 45120  51.6418 170.6165 0011401 195.2729 164.7911 15.34208774 27129","OBJECT_ID":"2019-071K","OBJECT_NUMBER":"45120","SEMIMAJOR_AXIS":"6841.408","PERIOD":"93.859","APOGEE":"471.073","PERIGEE":"455.473","DECAYED":"0"},{"COMMENT":"GENERATED VIA SPACETRACK.ORG API","ORIGINATOR":"18 SPCS","NORAD_CAT_ID":"45120","OBJECT_NAME":"VPM","OBJECT_TYPE":"PAYLOAD","CLASSIFICATION_TYPE":"U","INTLDES":"19071K","EPOCH":"2020-07-27 21:25:03","EPOCH_MICROSECONDS":"60192","MEAN_MOTION":"15.3421357","ECCENTRICITY":"0.0011387","INCLINATION":"51.6419","RA_OF_ASC_NODE":"167.4655","ARG_OF_PERICENTER":"197.6718","MEAN_ANOMALY":"162.387","EPHEMERIS_TYPE":"0","ELEMENT_SET_NO":"999","REV_AT_EPOCH":"2722","BSTAR":"0.000097576","MEAN_MOTION_DOT":"0.00002905","MEAN_MOTION_DDOT":"0","FILE":"2792365","TLE_LINE0":"0 VPM","TLE_LINE1":"1 45120U 19071K   20209.89239653 +.00002905 +00000-0 +97576-4 0  9992","TLE_LINE2":"2 45120 051.6419 167.4655 0011387 197.6718 162.3870 15.34213570027224","OBJECT_ID":"2019-071K","OBJECT_NUMBER":"45120","SEMIMAJOR_AXIS":"6841.394","PERIOD":"93.859","APOGEE":"471.049","PERIGEE":"455.469","DECAYED":"0"},{"COMMENT":"GENERATED VIA SPACETRACK.ORG API","ORIGINATOR":"18 SPCS","NORAD_CAT_ID":"45120","OBJECT_NAME":"VPM","OBJECT_TYPE":"PAYLOAD","CLASSIFICATION_TYPE":"U","INTLDES":"19071K","EPOCH":"2020-07-28 06:47:50","EPOCH_MICROSECONDS":"265888","MEAN_MOTION":"15.34216329","ECCENTRICITY":"0.0011364","INCLINATION":"51.642","RA_OF_ASC_NODE":"165.5752","ARG_OF_PERICENTER":"199.0178","MEAN_ANOMALY":"161.0381","EPHEMERIS_TYPE":"0","ELEMENT_SET_NO":"999","REV_AT_EPOCH":"2728","BSTAR":"0.000098438","MEAN_MOTION_DOT":"0.00002935","MEAN_MOTION_DDOT":"0","FILE":"2792599","TLE_LINE0":"0 VPM","TLE_LINE1":"1 45120U 19071K   20210.28322067 +.00002935 +00000-0 +98438-4 0  9990","TLE_LINE2":"2 45120 051.6420 165.5752 0011364 199.0178 161.0381 15.34216329027288","OBJECT_ID":"2019-071K","OBJECT_NUMBER":"45120","SEMIMAJOR_AXIS":"6841.386","PERIOD":"93.858","APOGEE":"471.025","PERIGEE":"455.476","DECAYED":"0"},{"COMMENT":"GENERATED VIA SPACETRACK.ORG API","ORIGINATOR":"18 SPCS","NORAD_CAT_ID":"45120","OBJECT_NAME":"VPM","OBJECT_TYPE":"PAYLOAD","CLASSIFICATION_TYPE":"U","INTLDES":"19071K","EPOCH":"2020-07-28 14:36:49","EPOCH_MICROSECONDS":"550112","MEAN_MOTION":"15.34218484","ECCENTRICITY":"0.0011351","INCLINATION":"51.6421","RA_OF_ASC_NODE":"163.9998","ARG_OF_PERICENTER":"200.2484","MEAN_ANOMALY":"159.8049","EPHEMERIS_TYPE":"0","ELEMENT_SET_NO":"999","REV_AT_EPOCH":"2733","BSTAR":"0.000096121","MEAN_MOTION_DOT":"0.00002857","MEAN_MOTION_DDOT":"0","FILE":"2792792","TLE_LINE0":"0 VPM","TLE_LINE1":"1 45120U 19071K   20210.60890683 +.00002857 +00000-0 +96121-4 0  9990","TLE_LINE2":"2 45120 051.6421 163.9998 0011351 200.2484 159.8049 15.34218484027330","OBJECT_ID":"2019-071K","OBJECT_NUMBER":"45120","SEMIMAJOR_AXIS":"6841.379","PERIOD":"93.858","APOGEE":"471.010","PERIGEE":"455.479","DECAYED":"0"}]